{"type": "FeatureCollection", "features": [ {"type": "Feature", "properties": {"norad_id": 66697, "name": "IRIDE FM3", "group": "last-30-days", "lat": 28.32351932250493, "lon": 68.14921810167836, "alt_km": 510.5128699111365, "timestamp": "2025-12-26T15:29:38.166531+00:00", "meta": {"OBJECT_NAME": "IRIDE FM3", "OBJECT_ID": "2025-276AH", "EPOCH": "2025-12-26T05:52:39.299520", "MEAN_MOTION": 15.1822112, "ECCENTRICITY": 0.00014734, "INCLINATION": 97.4382, "RA_OF_ASC_NODE": 71.7931, "ARG_OF_PERICENTER": 149.4613, "MEAN_ANOMALY": 210.6708, "EPHEMERIS_TYPE": 0, "CLASSIFICATION_TYPE": "U", "NORAD_CAT_ID": 66697, "ELEMENT_SET_NO": 999, "REV_AT_EPOCH": 417, "BSTAR": 0.00045073976, "MEAN_MOTION_DOT": 9.161e-05, "MEAN_MOTION_DDOT": 0}, "tle": {"line1": "1 66697U 25276AH  25360.24489930  .00009161  00000+0  45074-3 0  9990", "line2": "2 66697  97.4382  71.7931 0001473 149.4613 210.6708 15.18221120  4179"}}, "geometry": {"type": "Point", "coordinates": [68.14921810167836, 28.32351932250493]}}, {"type": "Feature", "properties": {"norad_id": 66698, "name": "IRIDE FM4", "group": "last-30-days", "lat": -51.4361636958843, "lon": 81.58594428094153, "alt_km": 520.0310287605062, "timestamp": "2025-12-26T15:29:38.166544+00:00", "meta": {"OBJECT_NAME": "IRIDE FM4", "OBJECT_ID": "2025-276AJ", "EPOCH": "2025-12-26T06:00:02.999808", "MEAN_MOTION": 15.17404857, "ECCENTRICITY": 0.00027603, "INCLINATION": 97.4384, "RA_OF_ASC_NODE": 71.7657, "ARG_OF_PERICENTER": 240.7634, "MEAN_ANOMALY": 67.8941, "EPHEMERIS_TYPE": 0, "CLASSIFICATION_TYPE": "U", "NORAD_CAT_ID": 66698, "ELEMENT_SET_NO": 999, "REV_AT_EPOCH": 130, "BSTAR": -0.0010052488, "MEAN_MOTION_DOT": -0.0002009, "MEAN_MOTION_DDOT": 0}, "tle": {"line1": "1 66698U 25276AJ  25360.25003472 -.00020090  00000+0 -10052-2 0  9998", "line2": "2 66698  97.4384  71.7657 0002760 240.7634  67.8941 15.17404857  1307"}}, "geometry": {"type": "Point", "coordinates": [81.58594428094153, -51.4361636958843]}}, {"type": "Feature", "properties": {"norad_id": 66699, "name": "IRIDE FM5", "group": "last-30-days", "lat": -49.7559636296279, "lon": 81.04249820861912, "alt_km": 519.8978049269308, "timestamp": "2025-12-26T15:29:38.166556+00:00", "meta": {"OBJECT_NAME": "IRIDE FM5", "OBJECT_ID": "2025-276AK", "EPOCH": "2025-12-26T06:13:10.751808", "MEAN_MOTION": 15.17428723, "ECCENTRICITY": 0.00030633, "INCLINATION": 97.4403, "RA_OF_ASC_NODE": 71.7808, "ARG_OF_PERICENTER": 238.1284, "MEAN_ANOMALY": 121.9651, "EPHEMERIS_TYPE": 0, "CLASSIFICATION_TYPE": "U", "NORAD_CAT_ID": 66699, "ELEMENT_SET_NO": 999, "REV_AT_EPOCH": 417, "BSTAR": 0.00078252375, "MEAN_MOTION_DOT": 0.00015609, "MEAN_MOTION_DDOT": 0}, "tle": {"line1": "1 66699U 25276AK  25360.25915222  .00015609  00000+0  78252-3 0  9999", "line2": "2 66699  97.4403  71.7808 0003063 238.1284 121.9651 15.17428723  4173"}}, "geometry": {"type": "Point", "coordinates": [81.04249820861912, -49.7559636296279]}}, {"type": "Feature", "properties": {"norad_id": 66700, "name": "IRIDE FM6", "group": "last-30-days", "lat": 33.13716013656269, "lon": 67.30708277519315, "alt_km": 509.5761245005824, "timestamp": "2025-12-26T15:29:38.166565+00:00", "meta": {"OBJECT_NAME": "IRIDE FM6", "OBJECT_ID": "2025-276AL", "EPOCH": "2025-12-26T05:51:31.157568", "MEAN_MOTION": 15.18530787, "ECCENTRICITY": 0.0002961, "INCLINATION": 97.4398, "RA_OF_ASC_NODE": 71.8057, "ARG_OF_PERICENTER": 184.1934, "MEAN_ANOMALY": 175.9276, "EPHEMERIS_TYPE": 0, "CLASSIFICATION_TYPE": "U", "NORAD_CAT_ID": 66700, "ELEMENT_SET_NO": 999, "REV_AT_EPOCH": 417, "BSTAR": 0.010657962, "MEAN_MOTION_DOT": 0.00226734, "MEAN_MOTION_DDOT": 0}, "tle": {"line1": "1 66700U 25276AL  25360.24411062  .00226734  00000+0  10658-1 0  9991", "line2": "2 66700  97.4398  71.8057 0002961 184.1934 175.9276 15.18530787  4171"}}, "geometry": {"type": "Point", "coordinates": [67.30708277519315, 33.13716013656269]}}, {"type": "Feature", "properties": {"norad_id": 66701, "name": "IRIDE FM7", "group": "last-30-days", "lat": -49.68536271997944, "lon": 81.02709194638159, "alt_km": 519.6328634229831, "timestamp": "2025-12-26T15:29:38.166575+00:00", "meta": {"OBJECT_NAME": "IRIDE FM7", "OBJECT_ID": "2025-276AM", "EPOCH": "2025-12-26T06:13:09.814368", "MEAN_MOTION": 15.17444258, "ECCENTRICITY": 0.00033669, "INCLINATION": 97.4415, "RA_OF_ASC_NODE": 71.7862, "ARG_OF_PERICENTER": 243.0326, "MEAN_ANOMALY": 117.0564, "EPHEMERIS_TYPE": 0, "CLASSIFICATION_TYPE": "U", "NORAD_CAT_ID": 66701, "ELEMENT_SET_NO": 999, "REV_AT_EPOCH": 417, "BSTAR": 0.00016966293, "MEAN_MOTION_DOT": 3.328e-05, "MEAN_MOTION_DDOT": 0}, "tle": {"line1": "1 66701U 25276AM  25360.25914137  .00003328  00000+0  16966-3 0  9996", "line2": "2 66701  97.4415  71.7862 0003366 243.0326 117.0564 15.17444258  4178"}}, "geometry": {"type": "Point", "coordinates": [81.02709194638159, -49.68536271997944]}}, {"type": "Feature", "properties": {"norad_id": 66702, "name": "IRIDE FM8", "group": "last-30-days", "lat": -48.77543489039602, "lon": 80.73374955051709, "alt_km": 519.6507879920991, "timestamp": "2025-12-26T15:29:38.166585+00:00", "meta": {"OBJECT_NAME": "IRIDE FM8", "OBJECT_ID": "2025-276AN", "EPOCH": "2025-12-26T06:12:55.015776", "MEAN_MOTION": 15.17440894, "ECCENTRICITY": 0.0002828, "INCLINATION": 97.4392, "RA_OF_ASC_NODE": 71.7777, "ARG_OF_PERICENTER": 246.9921, "MEAN_ANOMALY": 113.1014, "EPHEMERIS_TYPE": 0, "CLASSIFICATION_TYPE": "U", "NORAD_CAT_ID": 66702, "ELEMENT_SET_NO": 999, "REV_AT_EPOCH": 417, "BSTAR": 0.00034496287, "MEAN_MOTION_DOT": 6.838e-05, "MEAN_MOTION_DDOT": 0}, "tle": {"line1": "1 66702U 25276AN  25360.25897009  .00006838  00000+0  34496-3 0  9992", "line2": "2 66702  97.4392  71.7777 0002828 246.9921 113.1014 15.17440894  4172"}}, "geometry": {"type": "Point", "coordinates": [80.73374955051709, -48.77543489039602]}}, {"type": "Feature", "properties": {"norad_id": 66703, "name": "PELICAN-6", "group": "last-30-days", "lat": -42.87397876049964, "lon": 79.13096470886295, "alt_km": 520.6972286368627, "timestamp": "2025-12-26T15:29:38.166597+00:00", "meta": {"OBJECT_NAME": "PELICAN-6", "OBJECT_ID": "2025-276AP", "EPOCH": "2025-12-26T06:11:18.190752", "MEAN_MOTION": 15.1736285, "ECCENTRICITY": 0.00011622, "INCLINATION": 97.4401, "RA_OF_ASC_NODE": 71.7816, "ARG_OF_PERICENTER": 213.5906, "MEAN_ANOMALY": 146.5254, "EPHEMERIS_TYPE": 0, "CLASSIFICATION_TYPE": "U", "NORAD_CAT_ID": 66703, "ELEMENT_SET_NO": 999, "REV_AT_EPOCH": 417, "BSTAR": 0.00039873318, "MEAN_MOTION_DOT": 7.897e-05, "MEAN_MOTION_DDOT": 0}, "tle": {"line1": "1 66703U 25276AP  25360.25784943  .00007897  00000+0  39873-3 0  9995", "line2": "2 66703  97.4401  71.7816 0001162 213.5906 146.5254 15.17362850  4172"}}, "geometry": {"type": "Point", "coordinates": [79.13096470886295, -42.87397876049964]}}, {"type": "Feature", "properties": {"norad_id": 66704, "name": "FLOCK 4H-1", "group": "last-30-days", "lat": 23.109426685509565, "lon": 68.98581013703594, "alt_km": 511.09656275962425, "timestamp": "2025-12-26T15:29:38.166607+00:00", "meta": {"OBJECT_NAME": "FLOCK 4H-1", "OBJECT_ID": "2025-276AQ", "EPOCH": "2025-12-26T01:09:18.541728", "MEAN_MOTION": 15.18199501, "ECCENTRICITY": 0.00016563, "INCLINATION": 97.438, "RA_OF_ASC_NODE": 71.5943, "ARG_OF_PERICENTER": 285.8602, "MEAN_ANOMALY": 74.2449, "EPHEMERIS_TYPE": 0, "CLASSIFICATION_TYPE": "U", "NORAD_CAT_ID": 66704, "ELEMENT_SET_NO": 999, "REV_AT_EPOCH": 414, "BSTAR": 0.0004969835, "MEAN_MOTION_DOT": 0.00010102, "MEAN_MOTION_DDOT": 0}, "tle": {"line1": "1 66704U 25276AQ  25360.04813127  .00010102  00000+0  49698-3 0  9999", "line2": "2 66704  97.4380  71.5943 0001656 285.8602  74.2449 15.18199501  4143"}}, "geometry": {"type": "Point", "coordinates": [68.98581013703594, 23.109426685509565]}}, {"type": "Feature", "properties": {"norad_id": 66705, "name": "FLOCK 4H-2", "group": "last-30-days", "lat": 25.939714415821204, "lon": 68.53810416363343, "alt_km": 511.0914072584583, "timestamp": "2025-12-26T15:29:38.166619+00:00", "meta": {"OBJECT_NAME": "FLOCK 4H-2", "OBJECT_ID": "2025-276AR", "EPOCH": "2025-12-26T05:53:16.618272", "MEAN_MOTION": 15.1818808, "ECCENTRICITY": 0.00015493, "INCLINATION": 97.437, "RA_OF_ASC_NODE": 71.7877, "ARG_OF_PERICENTER": 151.4046, "MEAN_ANOMALY": 208.7273, "EPHEMERIS_TYPE": 0, "CLASSIFICATION_TYPE": "U", "NORAD_CAT_ID": 66705, "ELEMENT_SET_NO": 999, "REV_AT_EPOCH": 417, "BSTAR": 0.00047129935, "MEAN_MOTION_DOT": 9.573e-05, "MEAN_MOTION_DDOT": 0}, "tle": {"line1": "1 66705U 25276AR  25360.24533123  .00009573  00000+0  47130-3 0  9996", "line2": "2 66705  97.4370  71.7877 0001549 151.4046 208.7273 15.18188080  4174"}}, "geometry": {"type": "Point", "coordinates": [68.53810416363343, 25.939714415821204]}}, {"type": "Feature", "properties": {"norad_id": 66706, "name": "FLOCK 4H-3", "group": "last-30-days", "lat": -36.95886421251039, "lon": 77.82613113414709, "alt_km": 519.9193978960266, "timestamp": "2025-12-26T15:29:38.166629+00:00", "meta": {"OBJECT_NAME": "FLOCK 4H-3", "OBJECT_ID": "2025-276AS", "EPOCH": "2025-12-26T06:09:46.487520", "MEAN_MOTION": 15.17515949, "ECCENTRICITY": 0.00030422, "INCLINATION": 97.4438, "RA_OF_ASC_NODE": 71.7983, "ARG_OF_PERICENTER": 230.0299, "MEAN_ANOMALY": 130.0668, "EPHEMERIS_TYPE": 0, "CLASSIFICATION_TYPE": "U", "NORAD_CAT_ID": 66706, "ELEMENT_SET_NO": 999, "REV_AT_EPOCH": 417, "BSTAR": 0.00026927794, "MEAN_MOTION_DOT": 5.334e-05, "MEAN_MOTION_DDOT": 0}, "tle": {"line1": "1 66706U 25276AS  25360.25678805  .00005334  00000+0  26928-3 0  9998", "line2": "2 66706  97.4438  71.7983 0003042 230.0299 130.0668 15.17515949  4174"}}, "geometry": {"type": "Point", "coordinates": [77.82613113414709, -36.95886421251039]}}]}